GSAT0101 (PRN E11)      
1 37846U 11060A   23189.81153367 -.00000087  00000+0  00000+0 0  9997
2 37846  57.1003  10.8536 0003520  57.9518 302.1028  1.70475890 72932
GSAT0102 (PRN E12)      
1 37847U 11060B   23191.26276833 -.00000090  00000+0  00000+0 0  9998
2 37847  57.1021  10.8143 0002726  21.3691 195.7358  1.70475302 72953
GSAT0103 (PRN E19)      
1 38857U 12055A   23189.85042173  .00000013  00000+0  00000+0 0  9999
2 38857  55.2644 131.0743 0004772 274.4416  85.4738  1.70473573 66831
GSAT0104 (PRN E20)      
1 38858U 12055B   23190.40657047  .00000010  00000+0  00000+0 0  9992
2 38858  55.2642 131.0604 0001599 279.7721  80.1799  1.70473707 66813
GSAT0201 (PRN E18)      
1 40128U 14050A   23190.74849378 -.00000115  00000+0  00000+0 0  9996
2 40128  49.9869 316.8302 1611177 138.2174 235.2973  1.85519002 60340
GSAT0202 (PRN E14)      
1 40129U 14050B   23189.93009334 -.00000107  00000+0  00000+0 0  9997
2 40129  50.0076 315.9333 1608914 138.9962 234.3093  1.85519669 60527
GSAT0203 (PRN E26)      
1 40544U 15017A   23188.41791835 -.00000083  00000+0  00000+0 0  9991
2 40544  56.8957  10.8724 0001124 228.5165 131.4951  1.70475822 51521
GSAT0204 (PRN E22)      
1 40545U 15017B   23190.43114921 -.00000089  00000+0  00000+0 0  9998
2 40545  56.9019  10.8315 0001689 188.9193 171.0981  1.70475506 51560
GSAT0205 (PRN E24)      
1 40889U 15045A   23190.19911263  .00000010  00000+0  00000+0 0  9990
2 40889  55.3907 251.2770 0003031   9.6505 350.4321  1.70473823 48708
GSAT0206 (PRN E30)      
1 40890U 15045B   23190.41980851  .00000010  00000+0  00000+0 0  9996
2 40890  55.3899 251.2666 0001793 327.5459  32.5192  1.70473565 48737
GSAT0209 (PRN E09)      
1 41174U 15079A   23190.59135971  .00000008  00000+0  00000+0 0  9990
2 41174  55.2822 130.7603 0004686 313.8971  46.0343  1.70473855 47055
GSAT0208 (PRN E08)      
1 41175U 15079B   23191.98410057 -.00000004  00000+0  00000+0 0  9993
2 41175  55.2807 130.7200 0004102 311.7142  48.2176  1.70473949 47076
GSAT0211 (PRN E02)      
1 41549U 16030A   23190.93206409  .00000011  00000+0  00000+0 0  9991
2 41549  55.5366 251.2264 0003030 309.9839  50.0649  1.70473942 44351
GSAT0210 (PRN E01)      
1 41550U 16030B   23190.63703969  .00000010  00000+0  00000+0 0  9992
2 41550  55.5366 251.2359 0003026 265.6884  94.3528  1.70473741 44344
GSAT0207 (PRN E07)      
1 41859U 16069A   23191.47182310  .00000001  00000+0  00000+0 0  9990
2 41859  54.9449 130.8217 0004886 300.6978  59.2223  1.70473872 41338
GSAT0212 (PRN E03)      
1 41860U 16069B   23191.32655466  .00000002  00000+0  00000+0 0  9994
2 41860  54.9425 130.8227 0003601 324.9857  34.9593  1.70474028 41361
GSAT0213 (PRN E04)      
1 41861U 16069C   23190.51901357  .00000008  00000+0  00000+0 0  9994
2 41861  54.9445 130.8510 0004805 280.9988  78.9172  1.70472799 41344
GSAT0214 (PRN E05)      
1 41862U 16069D   23188.31984366  .00000016  00000+0  00000+0 0  9990
2 41862  54.9423 130.9059 0003935 286.1175  73.8050  1.70472586 41308
GSAT0215 (PRN E21)      
1 43055U 17079A   23189.39593062  .00000012  00000+0  00000+0 0  9992
2 43055  55.5136 251.0957 0002947 259.6645 100.3824  1.70474541 34662
GSAT0216 (PRN E25)      
1 43056U 17079B   23190.27446676  .00000010  00000+0  00000+0 0  9998
2 43056  55.5137 251.0714 0004551 269.2048  90.8198  1.70474630 34668
GSAT0217 (PRN E27)      
1 43057U 17079C   23192.25454748  .00000016  00000+0  00000+0 0  9994
2 43057  55.5105 251.0158 0003887 280.9598  79.0731  1.70474683 34713
GSAT0218 (PRN E31)      
1 43058U 17079D   23188.36853926  .00000017  00000+0  00000+0 0  9994
2 43058  55.5125 251.1206 0005011 266.5401  93.4884  1.70474565 34645
GSAT0221 (PRN E15)      
1 43564U 18060A   23189.44117859 -.00000085  00000+0  00000+0 0  9991
2 43564  57.2767  10.7580 0001427 291.6457  68.3593  1.70475706 30854
GSAT0222 (PRN E33)      
1 43565U 18060B   23184.96843627 -.00000069  00000+0  00000+0 0  9995
2 43565  57.2775  10.8796 0001303 324.7598  35.2634  1.70475606 30815
GSAT0219 (PRN E36)      
1 43566U 18060C   23189.29501208 -.00000085  00000+0  00000+0 0  9991
2 43566  57.2792  10.7650 0000995 334.5785  25.4369  1.70475666 30863
GSAT0220 (PRN E13)      
1 43567U 18060D   23190.10197941 -.00000087  00000+0  00000+0 0  9991
2 43567  57.2790  10.7430 0000918 312.1976  47.8148  1.70475456 30856
GSAT0223 (PRN E34)      
1 49809U 21116A   23189.95670759 -.00000087  00000+0  00000+0 0  9996
2 49809  57.2699  10.6431 0002379 138.8441 222.2543  1.70475544  9865
GSAT0224 (PRN E10)      
1 49810U 21116B   23190.35773473 -.00000088  00000+0  00000+0 0  9992
2 49810  57.2717  10.6307 0002467 125.7421 233.9543  1.70475586  9899
